[
  {
    "name": "United States",
    "dial_code": "+1",
    "emoji": "ğŸ‡ºğŸ‡¸"
  },
  {
    "name": "India",
    "dial_code": "+91",
    "emoji": "ğŸ‡®ğŸ‡³"
  },
  {
    "name": "Pakistan",
    "dial_code": "+92",
    "emoji": "ğŸ‡µğŸ‡°"
  },
  {
    "name": "Sri Lanka",
    "dial_code": "+94",
    "emoji": "ğŸ‡±ğŸ‡°"
  },
  {
    "name": "United Kingdom",
    "dial_code": "+44",
    "emoji": "ğŸ‡¬ğŸ‡§"
  },
  {
    "name": "Canada",
    "dial_code": "+1",
    "emoji": "ğŸ‡¨ğŸ‡¦"
  },
  {
    "name": "Australia",
    "dial_code": "+61",
    "emoji": "ğŸ‡¦ğŸ‡º"
  },
  {
    "name": "Germany",
    "dial_code": "+49",
    "emoji": "ğŸ‡©ğŸ‡ª"
  },
  {
    "name": "France",
    "dial_code": "+33",
    "emoji": "ğŸ‡«ğŸ‡·"
  },
  {
    "name": "Japan",
    "dial_code": "+81",
    "emoji": "ğŸ‡¯ğŸ‡µ"
  },
  {
    "name": "Brazil",
    "dial_code": "+55",
    "emoji": "ğŸ‡§ğŸ‡·"
  },
  {
    "name": "South Africa",
    "dial_code": "+27",
    "emoji": "ğŸ‡¿ğŸ‡¦"
  },
  {
    "name": "Russia",
    "dial_code": "+7",
    "emoji": "ğŸ‡·ğŸ‡º"
  },
  {
    "name": "China",
    "dial_code": "+86",
    "emoji": "ğŸ‡¨ğŸ‡³"
  },
  {
    "name": "Mexico",
    "dial_code": "+52",
    "emoji": "ğŸ‡²ğŸ‡½"
  },
  {
    "name": "Saudi Arabia",
    "dial_code": "+966",
    "emoji": "ğŸ‡¸ğŸ‡¦"
  },
  {
    "name": "South Korea",
    "dial_code": "+82",
    "emoji": "ğŸ‡°ğŸ‡·"
  },
  {
    "name": "Italy",
    "dial_code": "+39",
    "emoji": "ğŸ‡®ğŸ‡¹"
  },
  {
    "name": "Spain",
    "dial_code": "+34",
    "emoji": "ğŸ‡ªğŸ‡¸"
  },
  {
    "name": "Argentina",
    "dial_code": "+54",
    "emoji": "ğŸ‡¦ğŸ‡·"
  },
  {
    "name": "Turkey",
    "dial_code": "+90",
    "emoji": "ğŸ‡¹ğŸ‡·"
  },
  {
    "name": "Netherlands",
    "dial_code": "+31",
    "emoji": "ğŸ‡³ğŸ‡±"
  },
  {
    "name": "Belgium",
    "dial_code": "+32",
    "emoji": "ğŸ‡§ğŸ‡ª"
  },
  {
    "name": "Switzerland",
    "dial_code": "+41",
    "emoji": "ğŸ‡¨ğŸ‡­"
  },
  {
    "name": "Sweden",
    "dial_code": "+46",
    "emoji": "ğŸ‡¸ğŸ‡ª"
  },
  {
    "name": "Norway",
    "dial_code": "+47",
    "emoji": "ğŸ‡³ğŸ‡´"
  },
  {
    "name": "Denmark",
    "dial_code": "+45",
    "emoji": "ğŸ‡©ğŸ‡°"
  },
  {
    "name": "Austria",
    "dial_code": "+43",
    "emoji": "ğŸ‡¦ğŸ‡¹"
  },
  {
    "name": "Greece",
    "dial_code": "+30",
    "emoji": "ğŸ‡¬ğŸ‡·"
  },
  {
    "name": "Finland",
    "dial_code": "+358",
    "emoji": "ğŸ‡«ğŸ‡®"
  },
  {
    "name": "Ireland",
    "dial_code": "+353",
    "emoji": "ğŸ‡®ğŸ‡ª"
  },
  {
    "name": "Portugal",
    "dial_code": "+351",
    "emoji": "ğŸ‡µğŸ‡¹"
  },
  {
    "name": "Poland",
    "dial_code": "+48",
    "emoji": "ğŸ‡µğŸ‡±"
  },
  {
    "name": "Hungary",
    "dial_code": "+36",
    "emoji": "ğŸ‡­ğŸ‡º"
  },
  {
    "name": "Czech Republic",
    "dial_code": "+420",
    "emoji": "ğŸ‡¨ğŸ‡¿"
  },
  {
    "name": "Slovakia",
    "dial_code": "+421",
    "emoji": "ğŸ‡¸ğŸ‡°"
  },
  {
    "name": "Romania",
    "dial_code": "+40",
    "emoji": "ğŸ‡·ğŸ‡´"
  },
  {
    "name": "Bulgaria",
    "dial_code": "+359",
    "emoji": "ğŸ‡§ğŸ‡¬"
  },
  {
    "name": "Croatia",
    "dial_code": "+385",
    "emoji": "ğŸ‡­ğŸ‡·"
  },
  {
    "name": "Serbia",
    "dial_code": "+381",
    "emoji": "ğŸ‡·ğŸ‡¸"
  },
  {
    "name": "Ukraine",
    "dial_code": "+380",
    "emoji": "ğŸ‡ºğŸ‡¦"
  },
  {
    "name": "Belarus",
    "dial_code": "+375",
    "emoji": "ğŸ‡§ğŸ‡¾"
  },
  {
    "name": "Lithuania",
    "dial_code": "+370",
    "emoji": "ğŸ‡±ğŸ‡¹"
  },
  {
    "name": "Latvia",
    "dial_code": "+371",
    "emoji": "ğŸ‡±ğŸ‡»"
  },
  {
    "name": "Estonia",
    "dial_code": "+372",
    "emoji": "ğŸ‡ªğŸ‡ª"
  },
  {
    "name": "Iceland",
    "dial_code": "+354",
    "emoji": "ğŸ‡®ğŸ‡¸"
  },
  {
    "name": "New Zealand",
    "dial_code": "+64",
    "emoji": "ğŸ‡³ğŸ‡¿"
  },
  {
    "name": "Singapore",
    "dial_code": "+65",
    "emoji": "ğŸ‡¸ğŸ‡¬"
  },
  {
    "name": "Malaysia",
    "dial_code": "+60",
    "emoji": "ğŸ‡²ğŸ‡¾"
  },
  {
    "name": "Indonesia",
    "dial_code": "+62",
    "emoji": "ğŸ‡®ğŸ‡©"
  },
  {
    "name": "Thailand",
    "dial_code": "+66",
    "emoji": "ğŸ‡¹ğŸ‡­"
  },
  {
    "name": "Vietnam",
    "dial_code": "+84",
    "emoji": "ğŸ‡»ğŸ‡³"
  },
  {
    "name": "Philippines",
    "dial_code": "+63",
    "emoji": "ğŸ‡µğŸ‡­"
  },
  {
    "name": "Bangladesh",
    "dial_code": "+880",
    "emoji": "ğŸ‡§ğŸ‡©"
  },
  {
    "name": "Nepal",
    "dial_code": "+977",
    "emoji": "ğŸ‡³ğŸ‡µ"
  },
  {
    "name": "Bhutan",
    "dial_code": "+975",
    "emoji": "ğŸ‡§ğŸ‡¹"
  },
  {
    "name": "Afghanistan",
    "dial_code": "+93",
    "emoji": "ğŸ‡¦ğŸ‡«"
  },
  {
    "name": "Iran",
    "dial_code": "+98",
    "emoji": "ğŸ‡®ğŸ‡·"
  },
  {
    "name": "Iraq",
    "dial_code": "+964",
    "emoji": "ğŸ‡®ğŸ‡¶"
  },
  {
    "name": "Syria",
    "dial_code": "+963",
    "emoji": "ğŸ‡¸ğŸ‡¾"
  },
  {
    "name": "Jordan",
    "dial_code": "+962",
    "emoji": "ğŸ‡¯ğŸ‡´"
  },
  {
    "name": "Israel",
    "dial_code": "+972",
    "emoji": "ğŸ‡®ğŸ‡±"
  },
  {
    "name": "Lebanon",
    "dial_code": "+961",
    "emoji": "ğŸ‡±ğŸ‡§"
  },
  {
    "name": "Egypt",
    "dial_code": "+20",
    "emoji": "ğŸ‡ªğŸ‡¬"
  },
  {
    "name": "Morocco",
    "dial_code": "+212",
    "emoji": "ğŸ‡²ğŸ‡¦"
  },
  {
    "name": "Tunisia",
    "dial_code": "+216",
    "emoji": "ğŸ‡¹ğŸ‡³"
  },
  {
    "name": "Algeria",
    "dial_code": "+213",
    "emoji": "ğŸ‡©ğŸ‡¿"
  },
  {
    "name": "Libya",
    "dial_code": "+218",
    "emoji": "ğŸ‡±ğŸ‡¾"
  },
  {
    "name": "Sudan",
    "dial_code": "+249",
    "emoji": "ğŸ‡¸ğŸ‡©"
  },
  {
    "name": "Kenya",
    "dial_code": "+254",
    "emoji": "ğŸ‡°ğŸ‡ª"
  },
  {
    "name": "Uganda",
    "dial_code": "+256",
    "emoji": "ğŸ‡ºğŸ‡¬"
  },
  {
    "name": "Tanzania",
    "dial_code": "+255",
    "emoji": "ğŸ‡¹ğŸ‡¿"
  },
  {
    "name": "Ethiopia",
    "dial_code": "+251",
    "emoji": "ğŸ‡ªğŸ‡¹"
  },
  {
    "name": "Somalia",
    "dial_code": "+252",
    "emoji": "ğŸ‡¸ğŸ‡´"
  },
  {
    "name": "Ghana",
    "dial_code": "+233",
    "emoji": "ğŸ‡¬ğŸ‡­"
  },
  {
    "name": "Nigeria",
    "dial_code": "+234",
    "emoji": "ğŸ‡³ğŸ‡¬"
  },
  {
    "name": "Ivory Coast",
    "dial_code": "+225",
    "emoji": "ğŸ‡¨ğŸ‡®"
  },
  {
    "name": "Cameroon",
    "dial_code": "+237",
    "emoji": "ğŸ‡¨ğŸ‡²"
  },
  {
    "name": "Senegal",
    "dial_code": "+221",
    "emoji": "ğŸ‡¸ğŸ‡³"
  },
  {
    "name": "Mali",
    "dial_code": "+223",
    "emoji": "ğŸ‡²ğŸ‡±"
  },
  {
    "name": "Zimbabwe",
    "dial_code": "+263",
    "emoji": "ğŸ‡¿ğŸ‡¼"
  },
  {
    "name": "Zambia",
    "dial_code": "+260",
    "emoji": "ğŸ‡¿ğŸ‡²"
  },
  {
    "name": "Mozambique",
    "dial_code": "+258",
    "emoji": "ğŸ‡²ğŸ‡¿"
  },
  {
    "name": "Angola",
    "dial_code": "+244",
    "emoji": "ğŸ‡¦ğŸ‡´"
  },
  {
    "name": "Botswana",
    "dial_code": "+267",
    "emoji": "ğŸ‡§ğŸ‡¼"
  },
  {
    "name": "Namibia",
    "dial_code": "+264",
    "emoji": "ğŸ‡³ğŸ‡¦"
  },
  {
    "name": "Madagascar",
    "dial_code": "+261",
    "emoji": "ğŸ‡²ğŸ‡¬"
  },
  {
    "name": "Seychelles",
    "dial_code": "+248",
    "emoji": "ğŸ‡¸ğŸ‡¨"
  },
  {
    "name": "Mauritius",
    "dial_code": "+230",
    "emoji": "ğŸ‡²ğŸ‡º"
  },
  {
    "name": "Maldives",
    "dial_code": "+960",
    "emoji": "ğŸ‡²ğŸ‡»"
  },
  {
    "name": "Fiji",
    "dial_code": "+679",
    "emoji": "ğŸ‡«ğŸ‡¯"
  },
  {
    "name": "Papua New Guinea",
    "dial_code": "+675",
    "emoji": "ğŸ‡µğŸ‡¬"
  },
  {
    "name": "Samoa",
    "dial_code": "+685",
    "emoji": "ğŸ‡¼ğŸ‡¸"
  },
  {
    "name": "Tonga",
    "dial_code": "+676",
    "emoji": "ğŸ‡¹ğŸ‡´"
  }
]
